[{"OBJECT_NAME":"STARLINK-1226","OBJECT_ID":"2020-012BD","EPOCH":"2026-03-09T22:42:57.676896","MEAN_MOTION":15.30192115,"ECCENTRICITY":0.00012465,"INCLINATION":53.1609,"RA_OF_ASC_NODE":357.4259,"ARG_OF_PERICENTER":109.2355,"MEAN_ANOMALY":250.878,"EPHEMERIS_TYPE":0,"CLASSIFICATION_TYPE":"U","NORAD_CAT_ID":45229,"ELEMENT_SET_NO":999,"REV_AT_EPOCH":33545,"BSTAR":1.2652625e-5,"MEAN_MOTION_DOT":1.6e-7,"MEAN_MOTION_DDOT":0},{"OBJECT_NAME":"ICEYE-X31","OBJECT_ID":"2023-174AJ","EPOCH":"2026-03-09T23:06:20.433600","MEAN_MOTION":15.30950809,"ECCENTRICITY":0.00015021,"INCLINATION":97.3851,"RA_OF_ASC_NODE":144.9524,"ARG_OF_PERICENTER":332.6589,"MEAN_ANOMALY":27.4572,"EPHEMERIS_TYPE":0,"CLASSIFICATION_TYPE":"U","NORAD_CAT_ID":58288,"ELEMENT_SET_NO":999,"REV_AT_EPOCH":12955,"BSTAR":0.00066288467,"MEAN_MOTION_DOT":0.00019777,"MEAN_MOTION_DDOT":0}]
